{
    "links": {
        "self": "http://www.neowsapp.com/rest/v1/neo/3781371?api_key=iIulBulltgU6a56xZRHN4H3l9WmuAYTsLGpBGhQ2"
    },
    "id": "3781371",
    "neo_reference_id": "3781371",
    "name": "(2017 RM1)",
    "designation": "2017 RM1",
    "nasa_jpl_url": "http://ssd.jpl.nasa.gov/sbdb.cgi?sstr=3781371",
    "absolute_magnitude_h": 22.7,
    "estimated_diameter": {
        "kilometers": {
            "estimated_diameter_min": 0.0766575574,
            "estimated_diameter_max": 0.1714115092
        },
        "meters": {
            "estimated_diameter_min": 76.6575573531,
            "estimated_diameter_max": 171.4115092306
        },
        "miles": {
            "estimated_diameter_min": 0.0476327831,
            "estimated_diameter_max": 0.1065101409
        },
        "feet": {
            "estimated_diameter_min": 251.5011804664,
            "estimated_diameter_max": 562.3737359442
        }
    },
    "is_potentially_hazardous_asteroid": false,
    "close_approach_data": [
        {
            "close_approach_date": "2017-08-11",
            "close_approach_date_full": "2017-Aug-11 09:09",
            "epoch_date_close_approach": 1502442540000,
            "relative_velocity": {
                "kilometers_per_second": "9.5204050078",
                "kilometers_per_hour": "34273.4580282292",
                "miles_per_hour": "21296.1939620405"
            },
            "miss_distance": {
                "astronomical": "0.065831969",
                "lunar": "25.608635941",
                "kilometers": "9848322.34030603",
                "miles": "6119463.738962014"
            },
            "orbiting_body": "Earth"
        },
        {
            "close_approach_date": "2019-04-25",
            "close_approach_date_full": "2019-Apr-25 14:07",
            "epoch_date_close_approach": 1556201220000,
            "relative_velocity": {
                "kilometers_per_second": "13.3267846975",
                "kilometers_per_hour": "47976.4249111724",
                "miles_per_hour": "29810.6846899449"
            },
            "miss_distance": {
                "astronomical": "0.1559291756",
                "lunar": "60.6564493084",
                "kilometers": "23326672.540615972",
                "miles": "14494522.1968135336"
            },
            "orbiting_body": "Earth"
        }
    ],
    "orbital_data": {
        "orbit_id": "3",
        "orbit_determination_date": "2017-09-24 06:22:59",
        "first_observation_date": "2017-09-03",
        "last_observation_date": "2017-09-24",
        "data_arc_in_days": 21,
        "observations_used": 36,
        "orbit_uncertainty": "7",
        "minimum_orbit_intersection": ".0658647",
        "jupiter_tisserand_invariant": "4.364",
        "epoch_osculation": "2459000.5",
        "eccentricity": ".4115322118331573",
        "semi_major_axis": "1.540859110837915",
        "inclination": "5.769043444585051",
        "ascending_node_longitude": "280.8771584584455",
        "orbital_period": "698.6229090444971",
        "perihelion_distance": ".906745952831516",
        "perihelion_argument": "353.1765565973329",
        "aphelion_distance": "2.174972268844315",
        "perihelion_time": "2459339.408550600979",
        "mean_anomaly": "185.3606106572987",
        "mean_motion": ".5152994488720247",
        "equinox": "J2000",
        "orbit_class": {
            "orbit_class_type": "APO",
            "orbit_class_description": "Near-Earth asteroid orbits which cross the Earth’s orbit similar to that of 1862 Apollo",
            "orbit_class_range": "a (semi-major axis) > 1.0 AU; q (perihelion) < 1.017 AU"
        }
    },
    "is_sentry_object": false
}